[
    {
        "Altitude(m)": 553488.5255271728,
        "Argument of Periapsis(deg)": 0.0,
        "Eccentricity": 0.0,
        "Inclination(deg)": 53.0,
        "Latitude(deg)": 13.004358840139078,
        "Longitude(deg)": 50.06387719658116,
        "Mean Anomaly(deg)": -196.36359999999996,
        "RAAN(deg)": 340.00000000000006,
        "Satellite Name": "Starlink Shell 1 1506",
        "Satellite Number": 1506,
        "Semi-Major Axis(m)": 6931778.249405717,
        "Time(s)": 0
    },
    {
        "Altitude(m)": 553483.874654114,
        "Argument of Periapsis(deg)": 0.00034857847951123687,
        "Eccentricity": 0.0,
        "Inclination(deg)": 53.0,
        "Latitude(deg)": 12.507799249367412,
        "Longitude(deg)": 50.41854544611686,
        "Mean Anomaly(deg)": -195.73676879644333,
        "RAAN(deg)": 339.99948122992254,
        "Satellite Name": "Starlink Shell 1 1506",
        "Satellite Number": 1506,
        "Semi-Major Axis(m)": 6931778.249405717,
        "Time(s)": 10
    },
    {
        "Altitude(m)": 553481.805689638,
        "Argument of Periapsis(deg)": 0.0006971569590224737,
        "Eccentricity": 0.0,
        "Inclination(deg)": 53.0,
        "Latitude(deg)": 12.010646160163253,
        "Longitude(deg)": 50.771700579859704,
        "Mean Anomaly(deg)": -195.10993759288652,
        "RAAN(deg)": 339.9989624598451,
        "Satellite Name": "Starlink Shell 1 1506",
        "Satellite Number": 1506,
        "Semi-Major Axis(m)": 6931778.249405717,
        "Time(s)": 20
    },
    {
        "Altitude(m)": 553482.3424860897,
        "Argument of Periapsis(deg)": 0.0010457354385337105,
        "Eccentricity": 0.0,
        "Inclination(deg)": 53.0,
        "Latitude(deg)": 11.512926217254236,
        "Longitude(deg)": 51.123407901160654,
        "Mean Anomaly(deg)": -194.48310638932978,
        "RAAN(deg)": 339.9984436897676,
        "Satellite Name": "Starlink Shell 1 1506",
        "Satellite Number": 1506,
        "Semi-Major Axis(m)": 6931778.249405717,
        "Time(s)": 30
    },
    {
        "Altitude(m)": 553485.5077017368,
        "Argument of Periapsis(deg)": 0.0013943139180449475,
        "Eccentricity": 0.0,
        "Inclination(deg)": 53.0,
        "Latitude(deg)": 11.014665755345732,
        "Longitude(deg)": 51.47373259253026,
        "Mean Anomaly(deg)": -193.85627518577314,
        "RAAN(deg)": 339.99792491969015,
        "Satellite Name": "Starlink Shell 1 1506",
        "Satellite Number": 1506,
        "Semi-Major Axis(m)": 6931778.249405717,
        "Time(s)": 40
    },
    {
        "Altitude(m)": 553491.322786763,
        "Argument of Periapsis(deg)": 0.0017428923975561844,
        "Eccentricity": 0.0,
        "Inclination(deg)": 53.0,
        "Latitude(deg)": 10.515890814016391,
        "Longitude(deg)": 51.82273873386118,
        "Mean Anomaly(deg)": -193.2294439822164,
        "RAAN(deg)": 339.9974061496127,
        "Satellite Name": "Starlink Shell 1 1506",
        "Satellite Number": 1506,
        "Semi-Major Axis(m)": 6931778.249405717,
        "Time(s)": 50
    },
    {
        "Altitude(m)": 553499.8079698797,
        "Argument of Periapsis(deg)": 0.002091470877067421,
        "Eccentricity": 0.0,
        "Inclination(deg)": 53.0,
        "Latitude(deg)": 10.016627152343474,
        "Longitude(deg)": 52.170489833452905,
        "Mean Anomaly(deg)": -192.60261277865965,
        "RAAN(deg)": 339.99688737953517,
        "Satellite Name": "Starlink Shell 1 1506",
        "Satellite Number": 1506,
        "Semi-Major Axis(m)": 6931778.249405717,
        "Time(s)": 60
    },
    {
        "Altitude(m)": 553510.9822454852,
        "Argument of Periapsis(deg)": 0.0024400493565786582,
        "Eccentricity": 0.0,
        "Inclination(deg)": 53.0,
        "Latitude(deg)": 9.516900263269351,
        "Longitude(deg)": 52.517049358957294,
        "Mean Anomaly(deg)": -191.97578157510296,
        "RAAN(deg)": 339.9963686094577,
        "Satellite Name": "Starlink Shell 1 1506",
        "Satellite Number": 1506,
        "Semi-Major Axis(m)": 6931778.249405717,
        "Time(s)": 70
    },
    {
        "Altitude(m)": 553524.863361504,
        "Argument of Periapsis(deg)": 0.002788627836089895,
        "Eccentricity": 0.0,
        "Inclination(deg)": 53.0,
        "Latitude(deg)": 9.01673538771822,
        "Longitude(deg)": 52.86247975536541,
        "Mean Anomaly(deg)": -191.3489503715463,
        "RAAN(deg)": 339.99584983938024,
        "Satellite Name": "Starlink Shell 1 1506",
        "Satellite Number": 1506,
        "Semi-Major Axis(m)": 6931778.249405717,
        "Time(s)": 80
    },
    {
        "Altitude(m)": 553541.4678077684,
        "Argument of Periapsis(deg)": 0.0031372063156011316,
        "Eccentricity": 0.0,
        "Inclination(deg)": 53.0,
        "Latitude(deg)": 8.516157528481308,
        "Longitude(deg)": 53.206842975777825,
        "Mean Anomaly(deg)": -190.72211916798955,
        "RAAN(deg)": 339.9953310693028,
        "Satellite Name": "Starlink Shell 1 1506",
        "Satellite Number": 1506,
        "Semi-Major Axis(m)": 6931778.249405717,
        "Time(s)": 90
    },
    {
        "Altitude(m)": 553560.8108050775,
        "Argument of Periapsis(deg)": 0.0034857847951123688,
        "Eccentricity": 0.0,
        "Inclination(deg)": 53.0,
        "Latitude(deg)": 8.015191463879598,
        "Longitude(deg)": 53.55020101208358,
        "Mean Anomaly(deg)": -190.09528796443277,
        "RAAN(deg)": 339.99481229922526,
        "Satellite Name": "Starlink Shell 1 1506",
        "Satellite Number": 1506,
        "Semi-Major Axis(m)": 6931778.249405717,
        "Time(s)": 100
    },
    {
        "Altitude(m)": 553582.9062948289,
        "Argument of Periapsis(deg)": 0.003834363274623606,
        "Eccentricity": 0.0,
        "Inclination(deg)": 53.0,
        "Latitude(deg)": 7.513861761214276,
        "Longitude(deg)": 53.892614912671014,
        "Mean Anomaly(deg)": -189.46845676087617,
        "RAAN(deg)": 339.99429352914785,
        "Satellite Name": "Starlink Shell 1 1506",
        "Satellite Number": 1506,
        "Semi-Major Axis(m)": 6931778.249405717,
        "Time(s)": 110
    },
    {
        "Altitude(m)": 553607.7669293447,
        "Argument of Periapsis(deg)": 0.004182941754134842,
        "Eccentricity": 0.0,
        "Inclination(deg)": 53.0,
        "Latitude(deg)": 7.012192790020721,
        "Longitude(deg)": 54.234145312918514,
        "Mean Anomaly(deg)": -188.8416255573194,
        "RAAN(deg)": 339.9937747590704,
        "Satellite Name": "Starlink Shell 1 1506",
        "Satellite Number": 1506,
        "Semi-Major Axis(m)": 6931778.249405717,
        "Time(s)": 120
    },
    {
        "Altitude(m)": 553635.4040627736,
        "Argument of Periapsis(deg)": 0.004531520233646079,
        "Eccentricity": 0.0,
        "Inclination(deg)": 53.0,
        "Latitude(deg)": 6.510208735138184,
        "Longitude(deg)": 54.57485296559002,
        "Mean Anomaly(deg)": -188.2147943537627,
        "RAAN(deg)": 339.99325598899287,
        "Satellite Name": "Starlink Shell 1 1506",
        "Satellite Number": 1506,
        "Semi-Major Axis(m)": 6931778.249405717,
        "Time(s)": 130
    },
    {
        "Altitude(m)": 553665.8277426882,
        "Argument of Periapsis(deg)": 0.0048800987131573164,
        "Eccentricity": 0.0,
        "Inclination(deg)": 53.0,
        "Latitude(deg)": 6.007933609601804,
        "Longitude(deg)": 54.91479775826619,
        "Mean Anomaly(deg)": -187.58796315020598,
        "RAAN(deg)": 339.9927372189154,
        "Satellite Name": "Starlink Shell 1 1506",
        "Satellite Number": 1506,
        "Semi-Major Axis(m)": 6931778.249405717,
        "Time(s)": 140
    },
    {
        "Altitude(m)": 553699.0467022929,
        "Argument of Periapsis(deg)": 0.005228677192668553,
        "Eccentricity": 0.0,
        "Inclination(deg)": 53.0,
        "Latitude(deg)": 5.505391267375495,
        "Longitude(deg)": 55.2540392435573,
        "Mean Anomaly(deg)": -186.9611319466493,
        "RAAN(deg)": 339.9922184488379,
        "Satellite Name": "Starlink Shell 1 1506",
        "Satellite Number": 1506,
        "Semi-Major Axis(m)": 6931778.249405717,
        "Time(s)": 150
    },
    {
        "Altitude(m)": 553735.068353297,
        "Argument of Periapsis(deg)": 0.00557725567217979,
        "Eccentricity": 0.0,
        "Inclination(deg)": 53.0,
        "Latitude(deg)": 5.002605415934532,
        "Longitude(deg)": 55.592637169230485,
        "Mean Anomaly(deg)": -186.3343007430925,
        "RAAN(deg)": 339.9916996787605,
        "Satellite Name": "Starlink Shell 1 1506",
        "Satellite Number": 1506,
        "Semi-Major Axis(m)": 6931778.249405717,
        "Time(s)": 160
    },
    {
        "Altitude(m)": 553773.89877948,
        "Argument of Periapsis(deg)": 0.0059258341516910265,
        "Eccentricity": 0.0,
        "Inclination(deg)": 53.0,
        "Latitude(deg)": 4.499599628707589,
        "Longitude(deg)": 55.93065049537916,
        "Mean Anomaly(deg)": -185.7074695395358,
        "RAAN(deg)": 339.991180908683,
        "Satellite Name": "Starlink Shell 1 1506",
        "Satellite Number": 1506,
        "Semi-Major Axis(m)": 6931778.249405717,
        "Time(s)": 170
    },
    {
        "Altitude(m)": 553815.5427308432,
        "Argument of Periapsis(deg)": 0.006274412631202263,
        "Eccentricity": 0.0,
        "Inclination(deg)": 53.0,
        "Latitude(deg)": 3.996397357393828,
        "Longitude(deg)": 56.26813792438754,
        "Mean Anomaly(deg)": -185.0806383359791,
        "RAAN(deg)": 339.9906621386055,
        "Satellite Name": "Starlink Shell 1 1506",
        "Satellite Number": 1506,
        "Semi-Major Axis(m)": 6931778.249405717,
        "Time(s)": 180
    }
]